CCSDS_OMM_VERS = 2.0
CREATION_DATE  = 
ORIGINATOR     = 

OBJECT_NAME    = COSMOS 1933
OBJECT_ID      = 1988-020A
CENTER_NAME    = EARTH
REF_FRAME      = TEME
TIME_SYSTEM    = UTC
MEAN_ELEMENT_THEORY = SGP/SGP4

EPOCH          = 2026-01-18T11:40:23.309760
MEAN_MOTION    = 15.17475239
ECCENTRICITY   = .00054302
INCLINATION    = 82.5153
RA_OF_ASC_NODE = 300.5657
ARG_OF_PERICENTER = 34.2206
MEAN_ANOMALY   = 325.9377

EPHEMERIS_TYPE = 0
CLASSIFICATION_TYPE = U
NORAD_CAT_ID   = 18958
ELEMENT_SET_NO = 999
REV_AT_EPOCH   = 4261
BSTAR          = .19052577E-3
MEAN_MOTION_DOT = .3846E-4
MEAN_MOTION_DDOT = 0

CCSDS_OMM_VERS = 2.0
CREATION_DATE  = 
ORIGINATOR     = 

OBJECT_NAME    = SL-3 R/B
OBJECT_ID      = 1988-032B
CENTER_NAME    = EARTH
REF_FRAME      = TEME
TIME_SYSTEM    = UTC
MEAN_ELEMENT_THEORY = SGP/SGP4

EPOCH          = 2026-01-18T14:53:47.397408
MEAN_MOTION    = 15.19173450
ECCENTRICITY   = .0028014
INCLINATION    = 97.5115
RA_OF_ASC_NODE = 2.1044
ARG_OF_PERICENTER = 51.2077
MEAN_ANOMALY   = 309.1653

EPHEMERIS_TYPE = 0
CLASSIFICATION_TYPE = U
NORAD_CAT_ID   = 19046
ELEMENT_SET_NO = 999
REV_AT_EPOCH   = 4450
BSTAR          = .27357139E-3
MEAN_MOTION_DOT = .5742E-4
MEAN_MOTION_DDOT = 0

CCSDS_OMM_VERS = 2.0
CREATION_DATE  = 
ORIGINATOR     = 

OBJECT_NAME    = SL-16 R/B
OBJECT_ID      = 1988-039B
CENTER_NAME    = EARTH
REF_FRAME      = TEME
TIME_SYSTEM    = UTC
MEAN_ELEMENT_THEORY = SGP/SGP4

EPOCH          = 2026-01-18T16:04:34.024800
MEAN_MOTION    = 14.19607091
ECCENTRICITY   = .00199537
INCLINATION    = 71.0139
RA_OF_ASC_NODE = 174.3133
ARG_OF_PERICENTER = 53.0773
MEAN_ANOMALY   = 307.2177

EPHEMERIS_TYPE = 0
CLASSIFICATION_TYPE = U
NORAD_CAT_ID   = 19120
ELEMENT_SET_NO = 999
REV_AT_EPOCH   = 95128
BSTAR          = .1250061E-3
MEAN_MOTION_DOT = .216E-5
MEAN_MOTION_DDOT = 0

CCSDS_OMM_VERS = 2.0
CREATION_DATE  = 
ORIGINATOR     = 

OBJECT_NAME    = COSMOS 1953
OBJECT_ID      = 1988-050A
CENTER_NAME    = EARTH
REF_FRAME      = TEME
TIME_SYSTEM    = UTC
MEAN_ELEMENT_THEORY = SGP/SGP4

EPOCH          = 2026-01-18T14:14:31.032672
MEAN_MOTION    = 15.27418804
ECCENTRICITY   = .00106296
INCLINATION    = 82.5061
RA_OF_ASC_NODE = 208.5867
ARG_OF_PERICENTER = 304.9013
MEAN_ANOMALY   = 55.1226

EPHEMERIS_TYPE = 0
CLASSIFICATION_TYPE = U
NORAD_CAT_ID   = 19210
ELEMENT_SET_NO = 999
REV_AT_EPOCH   = 3013
BSTAR          = .25925193E-3
MEAN_MOTION_DOT = .6999E-4
MEAN_MOTION_DDOT = 0

CCSDS_OMM_VERS = 2.0
CREATION_DATE  = 
ORIGINATOR     = 

OBJECT_NAME    = SL-8 R/B
OBJECT_ID      = 1988-053B
CENTER_NAME    = EARTH
REF_FRAME      = TEME
TIME_SYSTEM    = UTC
MEAN_ELEMENT_THEORY = SGP/SGP4

EPOCH          = 2026-01-18T16:03:55.944864
MEAN_MOTION    = 14.38880840
ECCENTRICITY   = .0019494
INCLINATION    = 74.0454
RA_OF_ASC_NODE = 204.6564
ARG_OF_PERICENTER = 35.3226
MEAN_ANOMALY   = 35.1331

EPHEMERIS_TYPE = 0
CLASSIFICATION_TYPE = U
NORAD_CAT_ID   = 19257
ELEMENT_SET_NO = 999
REV_AT_EPOCH   = 96940
BSTAR          = .32544851E-4
MEAN_MOTION_DOT = .74E-6
MEAN_MOTION_DDOT = 0

CCSDS_OMM_VERS = 2.0
CREATION_DATE  = 
ORIGINATOR     = 

OBJECT_NAME    = COSMOS 1975
OBJECT_ID      = 1988-093A
CENTER_NAME    = EARTH
REF_FRAME      = TEME
TIME_SYSTEM    = UTC
MEAN_ELEMENT_THEORY = SGP/SGP4

EPOCH          = 2026-01-18T11:35:52.230624
MEAN_MOTION    = 15.27054008
ECCENTRICITY   = .0011381
INCLINATION    = 82.5207
RA_OF_ASC_NODE = 168.0286
ARG_OF_PERICENTER = 353.0932
MEAN_ANOMALY   = 7.0147

EPHEMERIS_TYPE = 0
CLASSIFICATION_TYPE = U
NORAD_CAT_ID   = 19573
ELEMENT_SET_NO = 999
REV_AT_EPOCH   = 1174
BSTAR          = .29211964E-3
MEAN_MOTION_DOT = .7798E-4
MEAN_MOTION_DDOT = 0

CCSDS_OMM_VERS = 2.0
CREATION_DATE  = 
ORIGINATOR     = 

OBJECT_NAME    = SL-14 R/B
OBJECT_ID      = 1988-093B
CENTER_NAME    = EARTH
REF_FRAME      = TEME
TIME_SYSTEM    = UTC
MEAN_ELEMENT_THEORY = SGP/SGP4

EPOCH          = 2026-01-18T11:23:22.879104
MEAN_MOTION    = 14.85594573
ECCENTRICITY   = .00201904
INCLINATION    = 82.5305
RA_OF_ASC_NODE = 89.1939
ARG_OF_PERICENTER = 200.3928
MEAN_ANOMALY   = 170.2134

EPHEMERIS_TYPE = 0
CLASSIFICATION_TYPE = U
NORAD_CAT_ID   = 19574
ELEMENT_SET_NO = 999
REV_AT_EPOCH   = 99358
BSTAR          = .49591658E-4
MEAN_MOTION_DOT = .455E-5
MEAN_MOTION_DDOT = 0

CCSDS_OMM_VERS = 2.0
CREATION_DATE  = 
ORIGINATOR     = 

OBJECT_NAME    = SL-16 R/B
OBJECT_ID      = 1988-102B
CENTER_NAME    = EARTH
REF_FRAME      = TEME
TIME_SYSTEM    = UTC
MEAN_ELEMENT_THEORY = SGP/SGP4

EPOCH          = 2026-01-18T09:37:12.312480
MEAN_MOTION    = 14.16145795
ECCENTRICITY   = .00119672
INCLINATION    = 70.9986
RA_OF_ASC_NODE = 257.3070
ARG_OF_PERICENTER = 87.0546
MEAN_ANOMALY   = 273.1946

EPHEMERIS_TYPE = 0
CLASSIFICATION_TYPE = U
NORAD_CAT_ID   = 19650
ELEMENT_SET_NO = 999
REV_AT_EPOCH   = 91977
BSTAR          = .14760776E-3
MEAN_MOTION_DOT = .244E-5
MEAN_MOTION_DDOT = 0

CCSDS_OMM_VERS = 2.0
CREATION_DATE  = 
ORIGINATOR     = 

OBJECT_NAME    = INTERCOSMOS 24
OBJECT_ID      = 1989-080A
CENTER_NAME    = EARTH
REF_FRAME      = TEME
TIME_SYSTEM    = UTC
MEAN_ELEMENT_THEORY = SGP/SGP4

EPOCH          = 2026-01-18T14:29:39.188256
MEAN_MOTION    = 12.59489161
ECCENTRICITY   = .1188926
INCLINATION    = 82.6080
RA_OF_ASC_NODE = 136.9901
ARG_OF_PERICENTER = 49.0514
MEAN_ANOMALY   = 320.7510

EPHEMERIS_TYPE = 0
CLASSIFICATION_TYPE = U
NORAD_CAT_ID   = 20261
ELEMENT_SET_NO = 999
REV_AT_EPOCH   = 66049
BSTAR          = .90003982E-4
MEAN_MOTION_DOT = .333E-5
MEAN_MOTION_DDOT = 0

CCSDS_OMM_VERS = 2.0
CREATION_DATE  = 
ORIGINATOR     = 

OBJECT_NAME    = SL-14 R/B
OBJECT_ID      = 1989-080C
CENTER_NAME    = EARTH
REF_FRAME      = TEME
TIME_SYSTEM    = UTC
MEAN_ELEMENT_THEORY = SGP/SGP4

EPOCH          = 2026-01-18T11:11:58.737984
MEAN_MOTION    = 12.50440041
ECCENTRICITY   = .12296685
INCLINATION    = 82.5915
RA_OF_ASC_NODE = 205.4352
ARG_OF_PERICENTER = 299.6326
MEAN_ANOMALY   = 48.7775

EPHEMERIS_TYPE = 0
CLASSIFICATION_TYPE = U
NORAD_CAT_ID   = 20262
ELEMENT_SET_NO = 999
REV_AT_EPOCH   = 65387
BSTAR          = .67517811E-4
MEAN_MOTION_DOT = .224E-5
MEAN_MOTION_DDOT = 0

CCSDS_OMM_VERS = 2.0
CREATION_DATE  = 
ORIGINATOR     = 

OBJECT_NAME    = DELTA 1 R/B
OBJECT_ID      = 1989-089B
CENTER_NAME    = EARTH
REF_FRAME      = TEME
TIME_SYSTEM    = UTC
MEAN_ELEMENT_THEORY = SGP/SGP4

EPOCH          = 2026-01-18T13:02:27.923136
MEAN_MOTION    = 14.50608705
ECCENTRICITY   = .00675787
INCLINATION    = 97.0735
RA_OF_ASC_NODE = 233.9457
ARG_OF_PERICENTER = 281.4972
MEAN_ANOMALY   = 77.8643

EPHEMERIS_TYPE = 0
CLASSIFICATION_TYPE = U
NORAD_CAT_ID   = 20323
ELEMENT_SET_NO = 999
REV_AT_EPOCH   = 88846
BSTAR          = .99958802E-4
MEAN_MOTION_DOT = .367E-5
MEAN_MOTION_DDOT = 0

CCSDS_OMM_VERS = 2.0
CREATION_DATE  = 
ORIGINATOR     = 

OBJECT_NAME    = ARIANE 40 R/B
OBJECT_ID      = 1990-005H
CENTER_NAME    = EARTH
REF_FRAME      = TEME
TIME_SYSTEM    = UTC
MEAN_ELEMENT_THEORY = SGP/SGP4

EPOCH          = 2026-01-18T15:22:09.127488
MEAN_MOTION    = 14.39827951
ECCENTRICITY   = .00099761
INCLINATION    = 98.3185
RA_OF_ASC_NODE = 80.7662
ARG_OF_PERICENTER = 2.1714
MEAN_ANOMALY   = 357.9516

EPHEMERIS_TYPE = 0
CLASSIFICATION_TYPE = U
NORAD_CAT_ID   = 20443
ELEMENT_SET_NO = 999
REV_AT_EPOCH   = 88560
BSTAR          = .84110853E-4
MEAN_MOTION_DOT = .222E-5
MEAN_MOTION_DDOT = 0

