COSMOS 1933             
1 18958U 88020A   26018.48638090  .00003846  00000+0  19053-3 0  9995
2 18958  82.5153 300.5657 0005430  34.2206 325.9377 15.17475239 42615
SL-3 R/B                
1 19046U 88032B   26018.62068747  .00005742  00000+0  27357-3 0  9992
2 19046  97.5115   2.1044 0028014  51.2077 309.1653 15.19173450 44504
SL-16 R/B               
1 19120U 88039B   26018.66983825  .00000216  00000+0  12501-3 0  9995
2 19120  71.0139 174.3133 0019953  53.0773 307.2177 14.19607091951280
COSMOS 1953             
1 19210U 88050A   26018.59341473  .00006999  00000+0  25925-3 0  9995
2 19210  82.5061 208.5867 0010629 304.9013  55.1226 15.27418804 30139
SL-8 R/B                
1 19257U 88053B   26018.66939751  .00000074  00000+0  32545-4 0  9994
2 19257  74.0454 204.6564 0019494  35.3226  35.1331 14.38880840969403
COSMOS 1975             
1 19573U 88093A   26018.48324341  .00007798  00000+0  29212-3 0  9998
2 19573  82.5207 168.0286 0011381 353.0932   7.0147 15.27054008 11745
SL-14 R/B               
1 19574U 88093B   26018.47457036  .00000455  00000+0  49592-4 0  9993
2 19574  82.5305  89.1939 0020190 200.3928 170.2134 14.85594573993589
SL-16 R/B               
1 19650U 88102B   26018.40083695  .00000244  00000+0  14761-3 0  9993
2 19650  70.9986 257.3070 0011967  87.0546 273.1946 14.16145795919778
INTERCOSMOS 24          
1 20261U 89080A   26018.60392579  .00000333  00000+0  90004-4 0  9999
2 20261  82.6080 136.9901 1188926  49.0514 320.7510 12.59489161660493
SL-14 R/B               
1 20262U 89080C   26018.46665206  .00000224  00000+0  67518-4 0  9997
2 20262  82.5915 205.4352 1229668 299.6326  48.7775 12.50440041653874
DELTA 1 R/B             
1 20323U 89089B   26018.54337874  .00000367  00000+0  99959-4 0  9992
2 20323  97.0735 233.9457 0067578 281.4972  77.8643 14.50608705888467
ARIANE 40 R/B           
1 20443U 90005H   26018.64038342  .00000222  00000+0  84111-4 0  9998
2 20443  98.3185  80.7662 0009976   2.1714 357.9516 14.39827951885606
